#dP2023 11 12  0  0  0.00000000      96 __u+U IGS20 FIT  IAC
## 2288      0.00000000   900.00000000 60260 0.0000000000000
+  116   C06C07C08C09C10C11C12C13C14C16C19C20C21C22C23C24C25
+        C26C27C28C29C30C32C33C34C35C36C37C38C39C40C41C42C43
+        C44C45C46E02E03E04E07E08E09E10E11E12E13E15E19E21E24
+        E25E26E27E30E31E33E34E36G01G02G03G04G05G06G07G08G09
+        G10G11G12G13G14G15G16G17G18G19G20G21G22G23G24G25G26
+        G27G28G29G30G31G32J02J03J04R01R02R03R04R05R07R08R09
+        R11R12R13R14R15R16R17R18R19R20R21R22R24R25  0  0  0
++         7  7  7  7  7  6  6  7  7  7  5  5  6  5  5  6  6
++         6  5  5  5  6  6  6  6  6  5  5  6  6  6  6  6  6
++         6  6  6  4  4  4  4  4  4  4  4  4  4  4  4  4  4
++         4  4  4  4  4  4  4  4  4  3  3  3  3  4  3  3  3
++         3  4  3  3  3  3  3  3  3  3  3  3  3  3  3  4  3
++         3  3  3  3  4  3  9  9  9  7  7  7  7  6  6  6  6
++         6  7  8  7  6  6  6  7  8  8  6  6  7  7  0  0  0
%c M  cc GPS ccc cccc cccc cccc cccc ccccc ccccc ccccc ccccc
%c cc cc ccc ccc cccc cccc cccc cccc ccccc ccccc ccccc ccccc
%f  1.2500000  1.025000000  0.00000000000  0.000000000000000
%f  0.0000000  0.000000000  0.00000000000  0.000000000000000
%i    0    0    0    0      0      0      0      0         0
%i    0    0    0    0      0      0      0      0         0
/* INFORMATION & ANALYSIS CENTER (IAC)            FINAL DATA
/* S/V CLOCKS ARE ALIGNED TO GNSS TIME                      
/* G:C1WC2W R:C1PC2P E:C1XC5X C:C2IC6I J:C1CC2S             
/* PCV:IGS20_2287 OL/AL:FES2004  NONE     YN ORB:CoN CLK:CoN
*  2023 11 12  9 45  0.00000000
PC06 -17575.168225  28732.001877  25212.715806     19.543925
PC07  -7377.328087  39934.133880  11805.587984   -305.955812
PC08  -1590.538880  22250.446485 -35754.412002    244.984270
PC09  -8223.028297  27632.745599  30995.957534    -78.869463
PC10   -882.841709  42219.918151   4765.928539    -14.253918
PC11  -9664.467406  21454.766664 -14942.438433    251.902178
PC12 -21868.023807  17173.085139   2493.471519    862.071852
PC13   4467.909293  25593.849186 -32977.945899    381.442809
PC14    452.537641  26700.863082  -8179.696989    768.324831
PC16 -21268.713400  28282.196367  22930.287950   -171.541561
PC19  -6897.483613 -27013.673224   -987.807311   -971.083274
PC20   5003.790486 -23101.543702  14819.290620    123.691139
PC21 -14951.190519   4810.893488 -23060.299890   -969.340928
PC22 -15512.766925 -15585.185290 -17181.594237   -228.457723
PC23  24028.860437  12480.314320   6732.997656   -823.260131
PC24 -12307.449196  12562.149676  21657.579952    588.421680
PC25   9538.509116  17359.531139  19636.690044    253.873518
PC26 -25473.849136   1288.669105  11347.087596   -205.071377
PC27  23277.949938 -11315.492184 -10457.356632    226.960136
PC28  17653.403809   3988.416943 -21230.861509    171.224678
PC29   -605.287983 -19273.783124  20170.325603    200.298624
PC30  16301.447235 -21876.567139   5910.166715     -8.189115
PC32  14972.339135  -4771.740920  23067.788408   -534.375825
PC33   7013.884992  27000.483420    889.561422   -945.558459
PC34 -15265.940790  22184.870769  -7290.943805    301.649329
PC35 -17891.169972  -3300.073033  21143.907095    504.648380
PC36  -8236.312156 -17588.543061 -20025.419835   -137.939328
PC37  25721.521265   -231.019330 -10777.704366   -883.849545
PC38 -10716.956489  20049.961626 -35478.332225    117.200069
PC39 -23959.185885  29077.956848  18722.383476     -5.632401
PC40 -12345.082887  37560.195130  15049.655253    -43.683093
PC41  15447.888478  16235.065710  16676.965038   -871.354555
PC42  -5945.702315  22149.601945 -15876.859623   -500.999436
PC43   -202.504174  19776.745725 -19685.411339     47.919550
PC44 -22859.142708  11995.219994  10555.077889    290.364381
PC45 -24329.532448 -12204.486051  -6227.898718    -45.330168
PC46  11041.554190 -13044.640101 -22060.238492    -99.138211
PE02  22880.320342  12884.268216 -13643.974142     77.775212
PE03  16893.791159   3004.871798  24107.181484    -72.944096
PE04 -17918.194700  17872.920005 -15350.524664   -255.680998
PE07   8650.523227 -28227.814341  -2098.016724    -87.375131
PE08  17935.650789 -17432.007246  15817.513196   -175.790107
PE09  -8739.622805  28217.521803   1957.690281   -224.871439
PE10 -19910.681697  14370.855659 -16540.047520   -578.262741
PE11  -9251.908493  16551.890455 -22732.436601   3196.793879
PE12 -26439.662563  10233.499282  -8492.224990   -773.826252
PE13  10049.851535 -16443.123902  22475.390633    -19.603497
PE15  26672.419446  -9998.185453   8056.358184    -68.664020
PE19 -15845.806489  -5763.553431 -24329.203784  -1231.495714
PE21 -16705.274467 -24135.276424  -3853.012059   -563.777249
PE24   -126.895286  21657.835742  20152.713469   -427.284953
PE25  16455.643921  24234.186212   4223.932292     -3.529396
PE26 -12939.980076 -13065.185116  23206.643454    278.629805
PE27   -467.064767 -21911.872218 -19899.479224   -197.915255
PE30  16148.999852  -6462.059280 -23956.407945   -655.713502
PE31 -15880.147000   6791.592271  24047.713813     -9.896491
PE33 -27193.750701  -2610.405922  11419.673852      2.186616
PE34  27434.187841   2169.778648 -10879.309418    -77.514907
PE36  12191.255312  13175.426582 -23528.785963   -142.934954
PG01   4454.240638  14163.870288 -22383.878096    163.195186
PG02  -2267.191447  15477.533157 -20931.761001   -530.004209
PG03  10500.728559  22590.786423  -9506.704416    -19.461449
PG04   1479.083515  22385.996079  14121.708600    210.698561
PG05    799.430346 -18388.804573  18935.922136   -150.081846
PG06  25698.498077  -6206.918510   3132.711524    507.997762
PG07  21163.261456   7333.836915  15109.266505     15.542441
PG08  -4175.505403  25377.530627  -5777.092324   -151.721098
PG09  10053.807524  14169.896298  19985.752030     -5.289358
PG10 -19515.119598  -5488.099535 -17146.026136    -61.073537
PG11  19179.160190 -12009.794458  13883.600857   -456.655056
PG12  -7462.724435 -23222.218474 -10880.292790   -446.133336
PG13  13419.872795 -22712.432191   1602.524750    594.408651
PG14  20363.420959   8744.539494 -14742.497471    240.996518
PG15    290.085707 -25696.269037  -6719.193614     96.346984
PG16  -7800.536907  14028.247335  20759.662247   -423.448972
PG17  16057.479145  -1399.231339 -20698.749317    723.316559
PG18 -22200.692815  -5874.127393  13513.763725   -476.802639
PG19  17848.523833  -9670.093340 -17133.110718    397.825322
PG20  11566.113484 -10369.813525  21581.186539    402.038936
PG21  -5348.604466  15792.993248 -19929.838294    144.476776
PG22  17732.050975   2317.892894 -19095.501733     85.381466
PG23 -20335.372171 -15640.293314  -7230.005433     97.613141
PG24     75.484144 -16330.866751 -21292.079579   -369.344220
PG25 -17318.771633 -20332.881064   -158.719169    477.037298
PG26 -15181.984304   6420.567246  20749.767796    217.187137
PG27 -12805.333461  21977.693989   6586.447063    -68.822178
PG28 -25875.783763   5942.016457    798.065779    -44.448645
PG29  -8189.032409 -15093.392394  20190.299115   -610.226350
PG30  26062.913095     66.773237   5923.637903   -469.083831
PG31 -23027.262983   9975.358291   9110.160398   -225.658508
PG32 -16656.365699   5889.682279 -19583.487889   -584.759982
PJ02 -25447.163126  23369.533703  29351.787728     -0.148636
PJ03 -35274.038996  20813.165209  -5303.943986     -7.976232
PJ04 -19786.217902  28806.526664 -18546.475661     72.278228
PR01  -3535.183291 -24986.448187  -3714.708422     69.657656
PR02  -9311.311694 -14420.666417 -18860.872349    -22.347790
PR03 -10524.277375   4540.917530 -22741.284401     88.870645
PR04  -5831.551210  20432.595404 -14073.734108    210.747174
PR05   1841.761127  25327.894527   2224.708185    122.094935
PR07  10432.906724  -5586.303225  22637.318325     68.951286
PR08   5717.337041 -20623.424763  13964.731992    -73.243892
PR09  22238.023293  12276.025314   2773.324383    152.785946
PR11   9465.537047  -7205.339101 -22556.870544   -212.602719
PR12  -9881.239554 -14867.009832 -18205.619193     33.341412
PR13 -21210.384203 -13265.969385  -5009.688354    -41.217496
PR14 -21151.347228  -3110.172322  13911.674525     25.536688
PR15  -8233.529183   8068.631043  22771.592906     84.829168
PR16   9735.770373  14668.810563  18480.158998     20.544970
PR17 -22209.259475   9414.567633   8378.960611     34.166298
PR18 -18378.410993  15607.693438  -8237.616656    111.556411
PR19  -7029.591413  14260.574691 -19943.910127   -254.366118
PR20  13110.730530   3582.687811 -21578.400005   -103.399079
PR21  22297.711357  -9664.122443  -7689.977382    -52.789408
PR22  18176.783378 -15384.384165   9185.411013     93.151949
PR24 -13925.136613  -3065.751744  21179.485229    -31.841787
PR25  22615.155681  -8357.930708  -8281.856438     -5.972724
EOF
